NORAD_CAT_ID,OBJECT_NAME,OBJECT_TYPE,EPOCH,MEAN_MOTION,ECCENTRICITY,INCLINATION,RA_OF_ASC_NODE,ARG_OF_PERICENTER,MEAN_ANOMALY,BSTAR,MEAN_MOTION_DOT,MEAN_MOTION_DDOT,TLE_LINE0,TLE_LINE1,TLE_LINE2,SEMIMAJOR_AXIS,PERIOD,APOGEE,PERIGEE,DECAYED
54800.0,STARLINK-5428,PAYLOAD,2023-10-18 10:56:12,15.08842977,0.0001439,53.2173,353.9948,80.5133,279.6021,0.0011443,0.00017972,0.0,0 STARLINK-5428,1 54800U 22175AU  23291.45569589  .00017972  00000-0  11443-2 0  9993,2 54800  53.2173 353.9948 0001439  80.5133 279.6021 15.08842977 46073,6917.871,95.437,540.732,538.741,0.0
54800.0,STARLINK-5428,PAYLOAD,2023-10-19 04:25:26,15.0886156,0.0001531,53.2164,350.7231,82.3746,277.742,0.001259,0.00019818,0.0,0 STARLINK-5428,1 54800U 22175AU  23292.18433457  .00019818  00000-0  12590-2 0  9993,2 54800  53.2164 350.7231 0001531  82.3746 277.7420 15.08861560 46189,6917.814,95.436,540.739,538.62,0.0
54800.0,STARLINK-5428,PAYLOAD,2023-10-19 10:46:58,15.08857889,0.0001524,53.2165,349.533,87.3644,272.7522,0.00066167,0.00010263,0.0,0 STARLINK-5428,1 54800U 22175AU  23292.44929093  .00010263  00000-0  66167-3 0  9993,2 54800  53.2165 349.5330 0001524  87.3644 272.7522 15.08857889 48381,6917.826,95.436,540.745,538.636,0.0
54800.0,STARLINK-5428,PAYLOAD,2023-10-19 20:19:17,15.08850197,0.0001709,53.2181,347.7479,88.9289,271.1899,0.00028887,4.314e-05,0.0,0 STARLINK-5428,1 54800U 22175AU  23292.84673190  .00004314  00000-0  28887-3 0  9998,2 54800  53.2181 347.7479 0001709  88.9289 271.1899 15.08850197 46282,6917.849,95.437,540.896,538.532,0.0
54800.0,STARLINK-5428,PAYLOAD,2023-10-20 04:16:13,15.08842156,0.0001948,53.219,346.2663,102.1797,257.9414,5.5001e-05,5.87e-06,0.0,0 STARLINK-5428,1 54800U 22175AU  23293.17793347  .00000587  00000-0  55001-4 0  9999,2 54800  53.2190 346.2663 0001948 102.1797 257.9414 15.08842156 46336,6917.874,95.437,541.086,538.391,0.0
54800.0,STARLINK-5428,PAYLOAD,2023-10-20 10:37:46,15.08839629,0.0001697,53.2179,345.0785,108.8549,251.2628,-3.0586e-06,-3.37e-06,0.0,0 STARLINK-5428,1 54800U 22175AU  23293.44289425 -.00000337  00000-0 -30586-5 0  9993,2 54800  53.2179 345.0785 0001697 108.8549 251.2628 15.08839629 48533,6917.882,95.438,540.92,538.573,0.0
54800.0,STARLINK-5428,PAYLOAD,2023-10-21 10:28:33,15.088356,0.0001827,53.2184,340.6177,112.8677,247.2508,2.093e-05,4.5e-07,0.0,0 STARLINK-5428,1 54800U 22175AU  23294.43649928  .00000045  00000-0  20930-4 0  9996,2 54800  53.2184 340.6177 0001827 112.8677 247.2508 15.08835600 46521,6917.894,95.438,541.023,538.495,0.0
54800.0,STARLINK-5428,PAYLOAD,2023-10-21 20:00:52,15.08839685,0.0001681,53.218,338.8319,108.3199,251.7976,1.6967e-05,-1.8e-07,0.0,0 STARLINK-5428,1 54800U 22175AU  23294.83393829 -.00000018  00000-0  16967-4 0  9992,2 54800  53.2180 338.8319 0001681 108.3199 251.7976 15.08839685 48743,6917.881,95.438,540.909,538.583,0.0
54800.0,STARLINK-5428,PAYLOAD,2023-10-22 10:19:20,15.08845711,0.0001521,53.2172,336.1536,99.3606,260.7558,0.00025403,3.758e-05,0.0,0 STARLINK-5428,1 54800U 22175AU  23295.43009754  .00003758  00000-0  25403-3 0  9997,2 54800  53.2172 336.1536 0001521  99.3606 260.7558 15.08845711 48834,6917.863,95.437,540.78,538.676,0.0
54800.0,STARLINK-5428,PAYLOAD,2023-10-22 19:51:39,15.08844384,0.0001762,53.2174,334.3677,80.0496,280.0695,0.00018546,2.665e-05,0.0,0 STARLINK-5428,1 54800U 22175AU  23295.82753894  .00002665  00000-0  18546-3 0  9997,2 54800  53.2174 334.3677 0001762  80.0496 280.0695 15.08844384 46732,6917.867,95.437,540.951,538.513,0.0
54800.0,STARLINK-5428,PAYLOAD,2023-10-23 10:10:08,15.08831578,0.0001707,53.2178,331.6917,80.367,279.7515,-0.0001014,-1.901e-05,0.0,0 STARLINK-5428,1 54800U 22175AU  23296.42370732 -.00001901  00000-0 -10140-3 0  9996,2 54800  53.2178 331.6917 0001707  80.3670 279.7515 15.08831578 46826,6917.906,95.438,540.952,538.59,0.0
54800.0,STARLINK-5428,PAYLOAD,2023-10-23 19:42:27,15.08838221,0.0001575,53.2179,329.9087,88.7896,271.3276,7.1072e-05,8.43e-06,0.0,0 STARLINK-5428,1 54800U 22175AU  23296.82114729  .00000843  00000-0  71072-4 0  9996,2 54800  53.2179 329.9087 0001575  88.7896 271.3276 15.08838221 49041,6917.886,95.438,540.84,538.661,0.0
54800.0,STARLINK-5428,PAYLOAD,2023-10-24 11:36:17,15.08848745,0.0001515,53.217,326.9333,89.7229,270.3937,9.6871e-05,1.254e-05,0.0,0 STARLINK-5428,1 54800U 22175AU  23297.48353955  .00001254  00000-0  96871-4 0  9996,2 54800  53.2170 326.9333 0001515  89.7229 270.3937 15.08848745 46983,6917.854,95.437,540.767,538.671,0.0
54800.0,STARLINK-5428,PAYLOAD,2023-10-25 08:16:18,15.08845253,0.0001591,53.2159,323.0681,87.0941,273.0233,0.00023284,3.42e-05,0.0,0 STARLINK-5428,1 54800U 22175AU  23298.34466302  .00003420  00000-0  23284-3 0  9997,2 54800  53.2159 323.0681 0001591  87.0941 273.0233 15.08845253 47116,6917.864,95.437,540.83,538.629,0.0
54800.0,STARLINK-5428,PAYLOAD,2023-10-26 11:17:52,15.08847229,0.0001525,53.2166,318.0114,92.6596,267.4571,1.1655e-05,-1.02e-06,0.0,0 STARLINK-5428,1 54800U 22175AU  23299.47074092 -.00000102  00000-0  11655-4 0  9998,2 54800  53.2166 318.0114 0001525  92.6596 267.4571 15.08847229 47289,6917.858,95.437,540.778,538.668,0.0
54800.0,STARLINK-5428,PAYLOAD,2023-10-27 11:08:38,15.08850259,0.0001531,53.2162,313.5505,97.2491,262.8675,6.5195e-05,7.5e-06,0.0,0 STARLINK-5428,1 54800U 22175AU  23300.46433530  .00000750  00000-0  65195-4 0  9992,2 54800  53.2162 313.5505 0001531  97.2491 262.8675 15.08850259 49598,6917.849,95.437,540.773,538.655,0.0
54800.0,STARLINK-5428,PAYLOAD,2023-10-28 01:27:07,15.0883395,0.0001813,53.2169,310.873,102.7566,257.3629,2.6146e-05,1.28e-06,0.0,0 STARLINK-5428,1 54800U 22175AU  23301.06050875  .00000128  00000-0  26146-4 0  9998,2 54800  53.2169 310.8730 0001813 102.7566 257.3629 15.08833950 47521,6917.899,95.438,541.018,538.51,0.0
54800.0,STARLINK-5428,PAYLOAD,2023-10-28 07:48:40,15.08833199,0.0001399,53.2162,309.6847,88.9664,271.1489,1.3591e-05,-7.2e-07,0.0,0 STARLINK-5428,1 54800U 22175AU  23301.32547154 -.00000072  00000-0  13591-4 0  9997,2 54800  53.2162 309.6847 0001399  88.9664 271.1489 15.08833199 49729,6917.901,95.438,540.734,538.798,0.0
54800.0,STARLINK-5428,PAYLOAD,2023-10-28 17:20:59,15.0883642,0.0001383,53.2161,307.9004,88.4187,271.6963,5.7849e-05,6.33e-06,0.0,0 STARLINK-5428,1 54800U 22175AU  23301.72291026  .00000633  00000-0  57849-4 0  9991,2 54800  53.2161 307.9004 0001383  88.4187 271.6963 15.08836420 49780,6917.891,95.438,540.713,538.8,0.0
54800.0,STARLINK-5428,PAYLOAD,2023-10-29 04:28:40,15.08844277,0.0001383,53.2152,305.8188,85.4226,274.6924,8.524e-05,1.069e-05,0.0,0 STARLINK-5428,1 54800U 22175AU  23302.18658528  .00001069  00000-0  85240-4 0  9996,2 54800  53.2152 305.8188 0001383  85.4226 274.6924 15.08844277 47698,6917.867,95.437,540.689,538.776,0.0
54800.0,STARLINK-5428,PAYLOAD,2023-10-29 07:39:26,15.08851226,0.0001396,53.2157,305.2253,90.2154,269.8998,0.00020996,3.056e-05,0.0,0 STARLINK-5428,1 54800U 22175AU  23302.31906192  .00003056  00000-0  20996-3 0  9998,2 54800  53.2157 305.2253 0001396  90.2154 269.8998 15.08851226 49879,6917.846,95.437,540.677,538.745,0.0
54800.0,STARLINK-5428,PAYLOAD,2023-10-29 17:11:46,15.08844909,0.0001394,53.2155,303.4424,98.1051,262.01,0.00011437,1.533e-05,0.0,0 STARLINK-5428,1 54800U 22175AU  23302.71650497  .00001533  00000-0  11437-3 0  9994,2 54800  53.2155 303.4424 0001394  98.1051 262.0100 15.08844909 49935,6917.865,95.437,540.695,538.766,0.0
54800.0,STARLINK-5428,PAYLOAD,2023-10-30 09:05:37,15.08840757,0.0001734,53.2172,300.4671,92.147,267.9721,0.00017096,2.434e-05,0.0,0 STARLINK-5428,1 54800U 22175AU  23303.37890951  .00002434  00000-0  17096-3 0  9996,2 54800  53.2172 300.4671 0001734  92.1470 267.9721 15.08840757 47873,6917.878,95.438,540.943,538.544,0.0
54800.0,STARLINK-5428,PAYLOAD,2023-10-30 17:02:33,15.08832285,0.0001668,53.2154,298.981,91.6791,268.4392,-5.9941e-05,-1.242e-05,0.0,0 STARLINK-5428,1 54800U 22175AU  23303.71011262 -.00001242  00000-0 -59941-4 0  9998,2 54800  53.2154 298.9810 0001668  91.6791 268.4392 15.08832285 47928,6917.904,95.438,540.923,538.615,0.0
54800.0,STARLINK-5428,PAYLOAD,2023-10-31 08:56:25,15.08836968,0.0001638,53.2173,296.0049,95.6108,264.5071,0.00011519,1.546e-05,0.0,0 STARLINK-5428,1 54800U 22175AU  23304.37251353  .00001546  00000-0  11519-3 0  9991,2 54800  53.2173 296.0049 0001638  95.6108 264.5071 15.08836968 50180,6917.89,95.438,540.888,538.622,0.0
54800.0,STARLINK-5428,PAYLOAD,2023-10-31 16:53:20,15.08838509,0.0001507,53.2163,294.5181,96.3007,263.8157,8.5408e-05,1.071e-05,0.0,0 STARLINK-5428,1 54800U 22175AU  23304.70371386  .00001071  00000-0  85408-4 0  9999,2 54800  53.2163 294.5181 0001507  96.3007 263.8157 15.08838509 50236,6917.885,95.438,540.792,538.707,0.0
54800.0,STARLINK-5428,PAYLOAD,2023-11-01 05:36:25,15.08845163,0.0001561,53.2159,292.1383,96.6388,263.4782,0.00029482,4.408e-05,0.0,0 STARLINK-5428,1 54800U 22175AU  23305.23363322  .00004408  00000-0  29482-3 0  9995,2 54800  53.2159 292.1383 0001561  96.6388 263.4782 15.08845163 48156,6917.865,95.437,540.809,538.65,0.0
54800.0,STARLINK-5428,PAYLOAD,2023-11-01 08:47:11,15.08849994,0.0001523,53.216,291.5439,99.042,261.0745,0.000336,5.065e-05,0.0,0 STARLINK-5428,1 54800U 22175AU  23305.36611101  .00005065  00000-0  33600-3 0  9997,2 54800  53.2160 291.5439 0001523  99.0420 261.0745 15.08849994 50337,6917.85,95.437,540.768,538.661,0.0
54800.0,STARLINK-5428,PAYLOAD,2023-11-01 16:44:08,15.08840692,0.0001863,53.218,290.0547,94.9346,265.1859,0.00014185,1.97e-05,0.0,0 STARLINK-5428,1 54800U 22175AU  23305.69731556  .00001970  00000-0  14185-3 0  9998,2 54800  53.2180 290.0547 0001863  94.9346 265.1859 15.08840692 48223,6917.878,95.438,541.032,538.454,0.0
54800.0,STARLINK-5428,PAYLOAD,2023-11-02 08:37:59,15.08845503,0.0001812,53.2176,287.08,105.216,254.9033,0.00042252,6.444e-05,0.0,0 STARLINK-5428,1 54800U 22175AU  23306.35971367  .00006444  00000-0  42252-3 0  9995,2 54800  53.2176 287.0800 0001812 105.2160 254.9033 15.08845503 50487,6917.864,95.437,540.982,538.475,0.0
